0 INTELSAT 5 (PAS 5)
1 24916U 97046A   13281.78919568  .00000103  00000-0  10000-3 0  6654
2 24916 000.8304 078.4062 0001709 104.3947 169.0527 01.00270520 59158
0 INTELSAT 5 (PAS 5)
1 24916U 97046A   13283.14874729  .00000098  00000-0  10000-3 0  6669
2 24916 000.8332 078.3862 0001769 104.6236 299.6157 01.00270984 59171
0 INTELSAT 5 (PAS 5)
1 24916U 97046A   13284.15686638  .00000095  00000-0  10000-3 0  6679
2 24916 000.8355 078.3815 0001817 103.9904 304.1641 01.00271147 59185
0 INTELSAT 5 (PAS 5)
1 24916U 97046A   13286.78339668  .00000090  00000-0  10000-3 0  6695
2 24916 000.8413 078.3538 0001871 105.4926 170.8268 01.00272224 59206
0 INTELSAT 5 (PAS 5)
1 24916U 97046A   13287.79036727  .00000089  00000-0  10000-3 0  6707
2 24916 000.8436 078.3466 0001884 105.9018 173.9293 01.00272674 59214
0 INTELSAT 5 (PAS 5)
1 24916U 97046A   13288.92422315  .00000090  00000-0  10000-3 0  6718
2 24916 000.8461 078.3382 0001881 106.1317 223.0176 01.00273147 59236
0 INTELSAT 5 (PAS 5)
1 24916U 97046A   13289.95024222  .00000091  00000-0  10000-3 0  6729
2 24916 000.8483 078.3339 0001883 106.0475 233.4903 01.00273594 59248
0 INTELSAT 5 (PAS 5)
1 24916U 97046A   13290.01014891  .00000000  00000-0  10000-3 0  6730
2 24916 000.8490 078.3648 0002067 114.9630 246.1666 01.00269841 59253
0 INTELSAT 5 (PAS 5)
1 24916U 97046A   13293.92633837  .00000099  00000-0  10000-3 0  6738
2 24916 000.8580 078.3457 0002050 121.9951 212.8346 01.00270873 59282
0 INTELSAT 5 (PAS 5)
1 24916U 97046A   13295.18300124  .00000101  00000-0  10000-3 0  6743
2 24916 000.8606 078.3298 0002127 121.4265 307.0536 01.00271444 59296
